[{"OBJECT_NAME":"DONGPO 08","OBJECT_ID":"2022-167E","EPOCH":"2026-03-09T22:57:52.742880","MEAN_MOTION":15.31542505,"ECCENTRICITY":0.00092155,"INCLINATION":97.6764,"RA_OF_ASC_NODE":233.3854,"ARG_OF_PERICENTER":153.9158,"MEAN_ANOMALY":206.2548,"EPHEMERIS_TYPE":0,"CLASSIFICATION_TYPE":"U","NORAD_CAT_ID":54686,"ELEMENT_SET_NO":999,"REV_AT_EPOCH":18012,"BSTAR":0.0004734784,"MEAN_MOTION_DOT":0.0001437,"MEAN_MOTION_DDOT":0},{"OBJECT_NAME":"STARLINK-31625","OBJECT_ID":"2024-068D","EPOCH":"2026-03-09T07:25:14.902464","MEAN_MOTION":15.27570468,"ECCENTRICITY":0.00014596,"INCLINATION":43.0049,"RA_OF_ASC_NODE":36.7415,"ARG_OF_PERICENTER":268.0898,"MEAN_ANOMALY":91.9787,"EPHEMERIS_TYPE":0,"CLASSIFICATION_TYPE":"U","NORAD_CAT_ID":59458,"ELEMENT_SET_NO":999,"REV_AT_EPOCH":10846,"BSTAR":-6.8041542e-5,"MEAN_MOTION_DOT":-2.133e-5,"MEAN_MOTION_DDOT":0}]
